STARLINK-1434           
1 45712U 20035BH  26068.24137979  .00054112  00000+0  20295-2 0  9995
2 45712  53.0547  22.1128 0005343  88.0400 272.1210 15.26724568319325
STARLINK-31312          
1 59152U 24044A   26068.31670944  .00000647  00000+0  33040-4 0  9992
2 59152  43.0017  58.4291 0001232 266.5226  93.5484 15.27574682114124
